name	name_ru	card_title	card_title_ru	link	type	type_ru	subtype	subtype_ru	place	place_ru	lat	lon	lang	n_tokens	platform	ignore
Corpus of Karelian Russian	Корпус русской речи Карелии	Karelian Russian	Карельский русский	https://lingconlab.ru/karelrus/	corpus	корпус	bilingual	билингвальный	Vedlozero	Ведлозеро	61.5840497	32.84259866	Russian	578646	spoco	
Corpus of Karelian Russian	Корпус русской речи Карелии	Karelian Russian	Карельский русский	https://lingconlab.ru/karelrus/	corpus	корпус	bilingual	билингвальный	Voknavolok	Вокнаволок	64.96367096	30.55972679	Russian	578646	spoco	
Corpus of Karelian Russian	Корпус русской речи Карелии	Karelian Russian	Карельский русский	https://lingconlab.ru/karelrus/	corpus	корпус	bilingual	билингвальный	Kinerma	Кинерма	61.52887061	32.82902349	Russian	578646	spoco	
Corpus of Karelian Russian	Корпус русской речи Карелии	Karelian Russian	Карельский русский	https://lingconlab.ru/karelrus/	corpus	корпус	bilingual	билингвальный	Kostomuksha	Костомукша	64.6256051	30.59937775	Russian	578646	spoco	
Corpus of Karelian Russian	Корпус русской речи Карелии	Karelian Russian	Карельский русский	https://lingconlab.ru/karelrus/	corpus	корпус	bilingual	билингвальный	Petrozavodsk	Петрозаводск	61.88543862	34.35907974	Russian	578646	spoco	
Corpus of Karelian Russian	Корпус русской речи Карелии	Karelian Russian	Карельский русский	https://lingconlab.ru/karelrus/	corpus	корпус	bilingual	билингвальный	Pryazha	Пряжа	61.69981975	33.62192192	Russian	578646	spoco	
Corpus of Russian spoken by the Besermans	Корпус русской речи бесермян	Beserman Russian	Бесермянский русский	https://lingconlab.ru/BesermanRus/	corpus	корпус	bilingual	билингвальный	Shamardan	Шамардан	58.01763035	52.15042724	Russian	97216	spoco	
Corpus of Russian spoken by the Roma	Корпус цыганского русского	Romani Russian	Цыганский русский	https://lingconlab.ru/romarus/	corpus	корпус	bilingual	билингвальный	Perm	Пермь	58.00197776	56.23228233	Russian	41767	spoco	
Corpus of Russian spoken in Bashkortostan	Корпус русской речи Башкирии	Bashkortostan Russian	Башкирский русский	https://lingconlab.ru/BashkirRus/	corpus	корпус	bilingual	билингвальный	Baimovo	Баимово	53.73774394	58.84175214	Russian	93127	spoco	
Corpus of Russian spoken in Chuvashia	Корпус русской речи Чувашии	Chuvash Russian	Чувашский русский	https://lingconlab.ru/ChuvashRus/	corpus	корпус	bilingual	билингвальный	Maloye Karachkino	Малое Карачкино	56.08806	46.45806	Russian	46307	spoco	
Corpus of Russian spoken in Daghestan	Корпус дагестанского русского	Daghestanian Russian	Дагестанский русский	http://parasolcorpus.org/dagrus/	corpus	корпус	bilingual	билингвальный	Archib	Арчиб	42.06677379	46.86868912	Russian	376717	spoco	
Corpus of Russian spoken in Daghestan	Корпус дагестанского русского	Daghestanian Russian	Дагестанский русский	http://parasolcorpus.org/dagrus/	corpus	корпус	bilingual	билингвальный	Balkhar	Балхар	42.2787296	47.23117667	Russian	376717	spoco	
Corpus of Russian spoken in Daghestan	Корпус дагестанского русского	Daghestanian Russian	Дагестанский русский	http://parasolcorpus.org/dagrus/	corpus	корпус	bilingual	билингвальный	Verkhniye Ubeki	Верхние Убеки	42.36709295	47.24507509	Russian	376717	spoco	
Corpus of Russian spoken in Daghestan	Корпус дагестанского русского	Daghestanian Russian	Дагестанский русский	http://parasolcorpus.org/dagrus/	corpus	корпус	bilingual	билингвальный	Darwag	Дарваг	42.02391162	48.06286306	Russian	376717	spoco	
Corpus of Russian spoken in Daghestan	Корпус дагестанского русского	Daghestanian Russian	Дагестанский русский	http://parasolcorpus.org/dagrus/	corpus	корпус	bilingual	билингвальный	Dubek	Дубек	42.02448591	47.96547434	Russian	376717	spoco	
Corpus of Russian spoken in Daghestan	Корпус дагестанского русского	Daghestanian Russian	Дагестанский русский	http://parasolcorpus.org/dagrus/	corpus	корпус	bilingual	билингвальный	Durangi	Дуранги	42.63540419	47.22373738	Russian	376717	spoco	
Corpus of Russian spoken in Daghestan	Корпус дагестанского русского	Daghestanian Russian	Дагестанский русский	http://parasolcorpus.org/dagrus/	corpus	корпус	bilingual	билингвальный	Yersi	Ерси	42.02074134	48.00888326	Russian	376717	spoco	
Corpus of Russian spoken in Daghestan	Корпус дагестанского русского	Daghestanian Russian	Дагестанский русский	http://parasolcorpus.org/dagrus/	corpus	корпус	bilingual	билингвальный	Zilo	Зило	42.73268493	46.32176207	Russian	376717	spoco	
Corpus of Russian spoken in Daghestan	Корпус дагестанского русского	Daghestanian Russian	Дагестанский русский	http://parasolcorpus.org/dagrus/	corpus	корпус	bilingual	билингвальный	Itsari	Ицари	41.99763485	47.58435465	Russian	376717	spoco	
Corpus of Russian spoken in Daghestan	Корпус дагестанского русского	Daghestanian Russian	Дагестанский русский	http://parasolcorpus.org/dagrus/	corpus	корпус	bilingual	билингвальный	Kalib	Калиб	42.07004342	46.86125184	Russian	376717	spoco	
Corpus of Russian spoken in Daghestan	Корпус дагестанского русского	Daghestanian Russian	Дагестанский русский	http://parasolcorpus.org/dagrus/	corpus	корпус	bilingual	билингвальный	Kina	Кина	41.6166	47.2647	Russian	376717	spoco	
Corpus of Russian spoken in Daghestan	Корпус дагестанского русского	Daghestanian Russian	Дагестанский русский	http://parasolcorpus.org/dagrus/	corpus	корпус	bilingual	билингвальный	Mallakent	Маллакент	42.1731202	47.79449062	Russian	376717	spoco	
Corpus of Russian spoken in Daghestan	Корпус дагестанского русского	Daghestanian Russian	Дагестанский русский	http://parasolcorpus.org/dagrus/	corpus	корпус	bilingual	билингвальный	Makhachkala	Махачкала	42.97836309	47.48282493	Russian	376717	spoco	
Corpus of Russian spoken in Daghestan	Корпус дагестанского русского	Daghestanian Russian	Дагестанский русский	http://parasolcorpus.org/dagrus/	corpus	корпус	bilingual	билингвальный	Megeb	Мегеб	42.2528	47.0472	Russian	376717	spoco	
Corpus of Russian spoken in Daghestan	Корпус дагестанского русского	Daghestanian Russian	Дагестанский русский	http://parasolcorpus.org/dagrus/	corpus	корпус	bilingual	билингвальный	Nikar	Никар	42.07520382	46.41179387	Russian	376717	spoco	
Corpus of Russian spoken in Daghestan	Корпус дагестанского русского	Daghestanian Russian	Дагестанский русский	http://parasolcorpus.org/dagrus/	corpus	корпус	bilingual	билингвальный	Rikvani	Риквани	42.78148532	46.3174228	Russian	376717	spoco	
Corpus of Russian spoken in Daghestan	Корпус дагестанского русского	Daghestanian Russian	Дагестанский русский	http://parasolcorpus.org/dagrus/	corpus	корпус	bilingual	билингвальный	Tlibisho	Тлибишо	42.56102793	46.30162993	Russian	376717	spoco	
Corpus of Russian spoken in Daghestan	Корпус дагестанского русского	Daghestanian Russian	Дагестанский русский	http://parasolcorpus.org/dagrus/	corpus	корпус	bilingual	билингвальный	Tukita	Тукита	42.57056	46.37278	Russian	376717	spoco	
Corpus of Russian spoken in Daghestan	Корпус дагестанского русского	Daghestanian Russian	Дагестанский русский	http://parasolcorpus.org/dagrus/	corpus	корпус	bilingual	билингвальный	Khiv	Хив	41.75161155	47.92894777	Russian	376717	spoco	
Corpus of Russian spoken in Daghestan	Корпус дагестанского русского	Daghestanian Russian	Дагестанский русский	http://parasolcorpus.org/dagrus/	corpus	корпус	bilingual	билингвальный	Cukhta	Цухта	42.34340661	47.32975273	Russian	376717	spoco	
Corpus of Russian spoken in Daghestan	Корпус дагестанского русского	Daghestanian Russian	Дагестанский русский	http://parasolcorpus.org/dagrus/	corpus	корпус	bilingual	билингвальный	Chishili	Чишили	42.15255375	47.66966563	Russian	376717	spoco	
Corpus of Russian spoken in Daghestan	Корпус дагестанского русского	Daghestanian Russian	Дагестанский русский	http://parasolcorpus.org/dagrus/	corpus	корпус	bilingual	билингвальный	Chuni	Чуни	42.349783	47.30274704	Russian	376717	spoco	
Corpus of Russian spoken in Daghestan	Корпус дагестанского русского	Daghestanian Russian	Дагестанский русский	http://parasolcorpus.org/dagrus/	corpus	корпус	bilingual	билингвальный	Shalib	Шалиб	42.09087713	46.91793154	Russian	376717	spoco	
Corpus of Russian spoken in Daghestan	Корпус дагестанского русского	Daghestanian Russian	Дагестанский русский	http://parasolcorpus.org/dagrus/	corpus	корпус	bilingual	билингвальный	Shangoda	Шангода	42.24624404	47.00053115	Russian	376717	spoco	
Corpus of Russian spoken in Daghestan	Корпус дагестанского русского	Daghestanian Russian	Дагестанский русский	http://parasolcorpus.org/dagrus/	corpus	корпус	bilingual	билингвальный	Yangikent	Янгикент	42.20521859	47.82786862	Russian	376717	spoco	
Corpus of Russian spoken in Mari El	Корпус русской речи республики Марий Эл	Mari Russian	Марийский русский	https://lingconlab.ru/MariRus/	corpus	корпус	bilingual	билингвальный	Staryj Toryal	Старый Торъял	56.96135324	48.78415752	Russian	69109	spoco	
Corpus of Russian spoken in Mari El	Корпус русской речи республики Марий Эл	Mari Russian	Марийский русский	https://lingconlab.ru/MariRus/	corpus	корпус	bilingual	билингвальный	Ushemnur	Ушемнур	56.97633321	48.79855642	Russian	69109	spoco	
Yakut-Russian Code-Switching Corpus	Якутско-русский корпус переключения кода	Yakut Russian	Якутский русский	https://lingconlab.ru/cs_yakut/	corpus	корпус	bilingual	билингвальный	Yakutsk	Якутск	62.09977727	129.7284794	Russian	15139	tsacorpus	
Corpus of Lukh and Teza river basins dialects	Корпус говоров низовья рек Лух и Теза	Lukh and Teza river basins dialects	Говоры низовья рек Лух и Теза	https://lingconlab.ru/lukhteza/	corpus	корпус	dialectal	диалектный	Mugreevo-Nikolskoe	Мугреево-Никольское	56.63162239	42.23476521	Russian	146350	spoco	
Corpus of Lukh and Teza river basins dialects	Корпус говоров низовья рек Лух и Теза	Lukh and Teza river basins dialects	Говоры низовья рек Лух и Теза	https://lingconlab.ru/lukhteza/	corpus	корпус	dialectal	диалектный	Nizhnij Landekh	Нижний Ландех	56.66074865	42.42448388	Russian	146350	spoco	
Corpus of Lukh and Teza river basins dialects	Корпус говоров низовья рек Лух и Теза	Lukh and Teza river basins dialects	Говоры низовья рек Лух и Теза	https://lingconlab.ru/lukhteza/	corpus	корпус	dialectal	диалектный	Preobrazhenskoe	Преображенское	56.64914706	41.83607824	Russian	146350	spoco	
Corpus of Lukh and Teza river basins dialects	Корпус говоров низовья рек Лух и Теза	Lukh and Teza river basins dialects	Говоры низовья рек Лух и Теза	https://lingconlab.ru/lukhteza/	corpus	корпус	dialectal	диалектный	Hotiml	Хотимль	56.6518927	41.70389578	Russian	146350	spoco	
Corpus of Lukh and Teza river basins dialects	Корпус говоров низовья рек Лух и Теза	Lukh and Teza river basins dialects	Говоры низовья рек Лух и Теза	https://lingconlab.ru/lukhteza/	corpus	корпус	dialectal	диалектный	Domnino	Домнино	56.66192686	41.73584579	Russian	146350	spoco	
Corpus of Lukh and Teza river basins dialects	Корпус говоров низовья рек Лух и Теза	Lukh and Teza river basins dialects	Говоры низовья рек Лух и Теза	https://lingconlab.ru/lukhteza/	corpus	корпус	dialectal	диалектный	Ryapolovo	Ряполово	56.68935588	41.6998953	Russian	146350	spoco	
Corpus of Lukh and Teza river basins dialects	Корпус говоров низовья рек Лух и Теза	Lukh and Teza river basins dialects	Говоры низовья рек Лух и Теза	https://lingconlab.ru/lukhteza/	corpus	корпус	dialectal	диалектный	Pogorelka	Погорелка	56.72199584	42.63165596	Russian	146350	spoco	
Corpus of Lukh and Teza river basins dialects	Корпус говоров низовья рек Лух и Теза	Lukh and Teza river basins dialects	Говоры низовья рек Лух и Теза	https://lingconlab.ru/lukhteza/	corpus	корпус	dialectal	диалектный	Volokobino	Волокобино	56.69510052	41.63889586	Russian	146350	spoco	
Corpus of Opochetsky dialects	Корпус опочецких говоров	Opochetsky dialects	Опочецкие говоры	https://lingconlab.ru/opochka/	corpus	корпус	dialectal	диалектный	Balashi	Балаши	56.81753039	28.68758591	Russian	68741	spoco	
Corpus of Opochetsky dialects	Корпус опочецких говоров	Opochetsky dialects	Опочецкие говоры	https://lingconlab.ru/opochka/	corpus	корпус	dialectal	диалектный	Barabany	Барабаны	56.79410375	28.68412406	Russian	68741	spoco	
Corpus of Opochetsky dialects	Корпус опочецких говоров	Opochetsky dialects	Опочецкие говоры	https://lingconlab.ru/opochka/	corpus	корпус	dialectal	диалектный	Glazanovo	Глазаново	56.81320003	28.68239364	Russian	68741	spoco	
Corpus of Opochetsky dialects	Корпус опочецких говоров	Opochetsky dialects	Опочецкие говоры	https://lingconlab.ru/opochka/	corpus	корпус	dialectal	диалектный	Kadnikovo	Кадниково	56.81217883	28.6973235	Russian	68741	spoco	
Corpus of Opochetsky dialects	Корпус опочецких говоров	Opochetsky dialects	Опочецкие говоры	https://lingconlab.ru/opochka/	corpus	корпус	dialectal	диалектный	Purshevo	Пуршево	56.77160879	28.67069343	Russian	68741	spoco	
Corpus of Rogovatka dialect	Корпус говора села Роговатка	Rogovatka dialect	Говор с. Роговатка	https://lingconlab.ru/rogovatka/	corpus	корпус	dialectal	диалектный	Rogovatoye	Роговатое	51.25013418	38.37745429	Russian	100047	spoco	
Corpus of Russian spoken in Zvenigorod	Корпус говора города Звенигород	Zvenigorod dialect	Говор г. Звенигород	https://lingconlab.ru/zvenigorod/	corpus	корпус	dialectal	диалектный	Zvenigorod	Звенигород	55.72446427	36.83595508	Russian	68324	spoco	
Corpus of Shetnevo and Makeevo dialect	Корпус говора деревень Шетнево и Макеево	Shetnevo and Makeevo dialect	Говор д. Шетнево и Макеево	https://lingconlab.ru/shetnevo/	corpus	корпус	dialectal	диалектный	Shetnevo	Шетнево	56.22927238	31.61327475	Russian	95335	spoco	
Corpus of Shetnevo and Makeevo dialect	Корпус говора деревень Шетнево и Макеево	Shetnevo and Makeevo dialect	Говор д. Шетнево и Макеево	https://lingconlab.ru/shetnevo/	corpus	корпус	dialectal	диалектный	Makeevo	Макеево	56.21463936	31.62124118	Russian	95335	spoco	
Corpus of Spiridonova Buda dialect	Корпус говора села Спиридонова Буда	Spiridonova Buda dialect	Говор с. Спиридонова Буда	https://lingconlab.ru/SpiridonovaBuda/	corpus	корпус	dialectal	диалектный	Spiridonova Buda	Спиридонова Буда	52.29603195	31.78794776	Russian	70565	spoco	
Corpus of the Russian dialect spoken in Keba	Корпус говора села Кеба	Keba dialect	Говор с. Кеба	https://lingconlab.ru/keba/	corpus	корпус	dialectal	диалектный	Keba	Кеба	64.35296829	46.20578404	Russian	54535	spoco	
Corpus of the Russian dialect spoken in Khislavichi district	Корпус говора Хиславичского района	Khislavichi dialect	Хиславичский говор	https://lingconlab.ru/khislavichi/	corpus	корпус	dialectal	диалектный	Zhanvil	Жанвиль	54.03100203	31.89814767	Russian	260793	spoco	
Corpus of the Russian dialect spoken in Khislavichi district	Корпус говора Хиславичского района	Khislavichi dialect	Хиславичский говор	https://lingconlab.ru/khislavichi/	corpus	корпус	dialectal	диалектный	Zhygalki	Жигалки	53.99736518	32.00736634	Russian	260793	spoco	
Corpus of the Russian dialect spoken in Khislavichi district	Корпус говора Хиславичского района	Khislavichi dialect	Хиславичский говор	https://lingconlab.ru/khislavichi/	corpus	корпус	dialectal	диалектный	Malye Khutora	Малые Хутора	54.12557365	32.00218658	Russian	260793	spoco	
Corpus of the Russian dialect spoken in Khislavichi district	Корпус говора Хиславичского района	Khislavichi dialect	Хиславичский говор	https://lingconlab.ru/khislavichi/	corpus	корпус	dialectal	диалектный	Soino	Соино	53.97977414	31.99372067	Russian	260793	spoco	
Corpus of the Russian dialect spoken in Khislavichi district	Корпус говора Хиславичского района	Khislavichi dialect	Хиславичский говор	https://lingconlab.ru/khislavichi/	corpus	корпус	dialectal	диалектный	Stajki	Стайки	54.13313367	32.01403531	Russian	260793	spoco	
Corpus of the Russian dialect spoken in Manturovo	Корпус говора Мантуровского района Костромской области	Manturovo dialect	Мантуровский говор	https://lingconlab.ru/manturovo/	corpus	корпус	dialectal	диалектный	Угоры	Ugory	58.12741514	44.3564281	Russian	113837	spoco	
Corpus of the Russian dialect spoken in Nekhochi	Корпус говора деревни Нехочи	Nekhochi dialect	Говор д. Нехочи	https://lingconlab.ru/nekhochi/	corpus	корпус	dialectal	диалектный	Nekhochi	Нехочи	53.43927272	34.92670885	Russian	88965	spoco	
Corpus of the Russian dialect spoken in the Mikhaylov area	Корпус говоров окрестностей Михайлова	Mikhaylov Corpus 	Корпус Михайлова	https://lingconlab.ru/mikhaylov/	corpus	корпус	dialectal	диалектный	Pecherniki	Печерники	54.12917	39.26306	Russian	47579	spoco	
Corpus of the Russian dialect spoken in the Mikhaylov area	Корпус говоров окрестностей Михайлова	Mikhaylov Corpus 	Корпус Михайлова	https://lingconlab.ru/mikhaylov/	corpus	корпус	dialectal	диалектный	Novopanskoye	Новопанское	54.33944	39.06333	Russian	47579	spoco	
Corpus of the Russian dialect spoken in the Mikhaylov area	Корпус говоров окрестностей Михайлова	Mikhaylov Corpus 	Корпус Михайлова	https://lingconlab.ru/mikhaylov/	corpus	корпус	dialectal	диалектный	Khavertovo	Хавертово	54.282996	39.201418	Russian	47579	spoco	
Corpus of the Russian dialect spoken in the village Malinino	Корпус говора села Малинино	Malinino dialect	Говор с. Малинино	https://lingconlab.ru/malinino/	corpus	корпус	dialectal	диалектный	Malinino	Малинино	52.29714519	39.34909665	Russian	138943	spoco	
Corpus of the Russian dialect spoken in the village Veegora	Корпус говора деревни Веегора	Veegora dialect	Говор д. Веегора	https://lingconlab.ru/veegora/	corpus	корпус	dialectal	диалектный	Veegora	Веегора	64.288509	44.326406	Russian	91514	spoco	
Corpus of the Russian dialect spoken in the villages of the Don river	Корпус донских говоров	Don river dialects	Донские говоры	https://lingconlab.ru/don_rnd/	corpus	корпус	dialectal	диалектный	Razdorskaya	Раздорская	47.53933391	40.64226054	Russian	69098	spoco	
Corpus of the Russian dialect spoken in the villages of the Don river	Корпус донских говоров	Don river dialects	Донские говоры	https://lingconlab.ru/don_rnd/	corpus	корпус	dialectal	диалектный	Melikhovskaya	Мелиховская	47.48119837	40.47855162	Russian	69098	spoco	
Corpus of the Russian dialect spoken in the villages of the Middle Northern Dvina	Корпус говоров среднего течения Северной Двины	Middle Northern Dvina dialects	Говоры среднего течения Северной Двины	https://lingconlab.ru/dvina/	corpus	корпус	dialectal	диалектный	Seltso	Сельцо	62.484937	43.776278	Russian	68010	spoco	
Corpus of the Russian dialect spoken in the villages of the Middle Northern Dvina	Корпус говоров среднего течения Северной Двины	Middle Northern Dvina dialects	Говоры среднего течения Северной Двины	https://lingconlab.ru/dvina/	corpus	корпус	dialectal	диалектный	Timoshino	Тимошино	62.012085	45.213367	Russian	68010	spoco	
Corpus of the Russian dialect spoken in the villages of the Middle Pinega	Корпус говоров Средней Пинеги	Middle Pinega dialects 	Говоры  среднего течения Пинеги 	https://lingconlab.ru/pinega/	corpus	корпус	dialectal	диалектный	Nyukhcha	Нюхча	63.442014	46.525869	Russian	43270	spoco	
Corpus of the Russian dialect spoken in the villages of the Middle Pinega	Корпус говоров Средней Пинеги	Middle Pinega dialects 	Говоры  среднего течения Пинеги 	https://lingconlab.ru/pinega/	corpus	корпус	dialectal	диалектный	Zanyukhcha	Занюхча	63.43472	46.54139	Russian	43270	spoco	
Corpus of the Russian dialect spoken in the villages of the Middle Pinega	Корпус говоров Средней Пинеги	Middle Pinega dialects 	Говоры  среднего течения Пинеги 	https://lingconlab.ru/pinega/	corpus	корпус	dialectal	диалектный	Lavela	Лавела	63.63344	45.52426	Russian	43270	spoco	
Corpus of the Russian dialect spoken in the villages of the Middle Pinega	Корпус говоров Средней Пинеги	Middle Pinega dialects 	Говоры  среднего течения Пинеги 	https://lingconlab.ru/pinega/	corpus	корпус	dialectal	диалектный	Yavzora	Явзора	63.71437	45.41804	Russian	43270	spoco	
Corpus of the Russian dialect spoken in the villages of the Middle Pinega	Корпус говоров Средней Пинеги	Middle Pinega dialects 	Говоры  среднего течения Пинеги 	https://lingconlab.ru/pinega/	corpus	корпус	dialectal	диалектный	Kevrola	Кеврола	63.95333	44.51	Russian	43270	spoco	
Corpus of the Russian dialect spoken in the villages of the Middle Pinega	Корпус говоров Средней Пинеги	Middle Pinega dialects 	Говоры  среднего течения Пинеги 	https://lingconlab.ru/pinega/	corpus	корпус	dialectal	диалектный	Vaymusha	Ваймуша	63.971728	44.513615	Russian	43270	spoco	
Corpus of the Russian dialect spoken in the villages of the Middle Pyoza	Корпус говора Средней Пёзы	Middle Pyoza dialect	Говор Средней Пёзы	https://lingconlab.ru/pyoza/	corpus	корпус	dialectal	диалектный	Moseyevo	Мосеево	65.79154042	46.15583678	Russian	79566	spoco	
Corpus of the Russian dialect spoken in Tserkovnoe	Корпус говора села Церковное	Tserkovnoe dialect	Говор с. Церковное	https://lingconlab.ru/tserkovnoe/	corpus	корпус	dialectal	диалектный	Niz	Низ	62.66236876	41.35828599	Russian	39469	spoco	
Luzhnikovo Corpus	Лужниковский корпус	Luzhnikovo dialect	Лужниковский говор	https://lingconlab.ru/luzhnikovo/	corpus	корпус	dialectal	диалектный	Luzhnikovo	Лужниково	57.40276341	34.13254462	Russian	68666	spoco	
Svishni and Trostnoe Corpus 	Корпус сёл Свишни и Тростное	Svishni and Trostnoe dialects	Говор сёл Свишни и Тростное	https://lingconlab.ru/yelets/	corpus	корпус	dialectal	диалектный	Svishni	Свишни	52.46194	38.26556	Russian	24414	spoco	
Svishni and Trostnoe Corpus 	Корпус сёл Свишни и Тростное	Svishni and Trostnoe dialects	Говор сёл Свишни и Тростное	https://lingconlab.ru/yelets/	corpus	корпус	dialectal	диалектный	Svishni	Свишни	52.698905	38.374125	Russian	24414	spoco	
Upper Pinega and Vyya Corpus	Корпус говора верхней Пинеги и Выи	Upper Pinega and Vyya river basins dialect	Говор верхней Пинеги и Выи	https://lingconlab.ru/vaduga/	corpus	корпус	dialectal	диалектный	Vadyuga	Вадюга	62.68166952	46.49360741	Russian	70803	spoco	
Upper Pinega and Vyya Corpus	Корпус говора верхней Пинеги и Выи	Upper Pinega and Vyya river basins dialect	Говор верхней Пинеги и Выи	https://lingconlab.ru/vaduga/	corpus	корпус	dialectal	диалектный	Tineva	Тинева	62.94220939	46.13215149	Russian	70803	spoco	
Upper Pinega and Vyya Corpus	Корпус говора верхней Пинеги и Выи	Upper Pinega and Vyya river basins dialect	Говор верхней Пинеги и Выи	https://lingconlab.ru/vaduga/	corpus	корпус	dialectal	диалектный	Zaytsevo	Зайцево	62.93915634	46.42674763	Russian	70803	spoco	
Upper Pinega and Vyya Corpus	Корпус говора верхней Пинеги и Выи	Upper Pinega and Vyya river basins dialect	Говор верхней Пинеги и Выи	https://lingconlab.ru/vaduga/	corpus	корпус	dialectal	диалектный	Podolskaya	Подольская	62.94455674	46.37503928	Russian	70803	spoco	
Ustja River Basin Corpus	Корпус устьянских говоров	Ustja River Basin dialects	Устьянские говоры	http://www.parasolcorpus.org/Pushkino/	corpus	корпус	dialectal	диалектный	Mikhalevskaya	Михалёвская	61.50111116	42.65695604	Russian	959782	spoco	
Dictionary of Dargwa languages	Словарь даргинских языков	Dargwa varieties	Даргинские языки	https://lingconlab.ru/dargwa_dict/	dictionary	словарь	dictionary	словарь	NA	NA	42.4257	47.4388	Nuclear North Dargwa	7917	other	
Dictionary of the Mehweb language	Словарь мегебского языка	Mehweb Dargwa	Мегебский даргинский	https://lingconlab.ru/MehwebDict/	dictionary	словарь	dictionary	словарь	Megeb	Мегеб	42.2568	47.0512	Megeb	1132	other	
Dictionary of the Rutul language	Словарь рутульского языка	Rutul	Рутульский	https://linghub.ru/rutuldict/	dictionary	словарь	dictionary	словарь	Kina	Кина	41.6186	47.2667	Rutul	738	other	ignore
Dictionary of the Tukita language	Словарь тукитинского языка	Tukita	Тукитинский	https://lingconlab.ru/TukitaDict/	dictionary	словарь	dictionary	словарь	Tukita	Тукита	42.57076	46.37298	Karata	1175	other	
Dictionary of the Khwarshi language	Словарь хваршинского языка	Khwarshi	Хваршинский	https://lingconlab.github.io/Khwarshi_dictionary/	dictionary	словарь	dictionary	словарь	Khwarshi	Хварши	42.352452	46.106436	Khwarshi-Inkhoqwari	10291	other	
Digital digtionary of Greek and Polish borowings XI-XVII	Электронный словарь грецизмов и полонизмов XI-XVII вв.			https://lingconlab.ru/EDGrPol/	dictionary	словарь	dictionary	словарь							other	ignore
Corpus of Standard Dargwa	Корпус литературного даргинского	Standard Dargwa	Литературный даргинский	https://lingconlab.ru/standard_dargwa/	corpus	корпус	minority	малых языков	NA	NA	42.4257	47.4388	Nuclear North Dargwa	6382427	tsacorpus	
Spoken corpus of Abaza	Устный корпус абазинского языка	Abaza	Абазинский	https://lingconlab.ru/spoken_abaza/	corpus	корпус	minority	малых языков	Inzhich-Chukun	Инжич-Чукун	44.04614598	41.7812629	Abaza	3636	tsacorpus	
Spoken corpus of Bashkir	Устный корпус башкирского языка	Bashkir	Башкирский	https://lingconlab.ru/spoken_bashkir/	corpus	корпус	minority	малых языков	Baimovo	Баимово	53.72758163	58.84260186	Bashkir	28202	tsacorpus	
Spoken corpus of Bashkir	Устный корпус башкирского языка	Bashkir	Башкирский	https://lingconlab.ru/spoken_bashkir/	corpus	корпус	minority	малых языков	Rakhmetovo	Рахметово	53.82462214	58.88647481	Bashkir	28202	tsacorpus	
Spoken corpus of Botlikh	Устный корпус ботлихского языка	Botlikh	Ботлихский	https://lingconlab.ru/botlikh/	corpus	корпус	minority	малых языков	Botlikh	Ботлих	42.665	46.22	Botlikh	1603	tsacorpus	
Spoken corpus of Khakas	Устный корпус диалектов хакасского языка	Khakas	Хакасский	https://lingconlab.ru/spoken_khakas/	corpus	корпус	minority	малых языков	Butrachty	Бутрахты	52.81184385	89.98742813	Khakas	57633	tsacorpus	
Spoken corpus of Khakas	Устный корпус диалектов хакасского языка	Khakas	Хакасский	https://lingconlab.ru/spoken_khakas/	corpus	корпус	minority	малых языков	Kazanovka	Казановка	53.21588574	90.04742874	Khakas	57633	tsacorpus	
Spoken corpus of Khakas	Устный корпус диалектов хакасского языка	Khakas	Хакасский	https://lingconlab.ru/spoken_khakas/	corpus	корпус	minority	малых языков	Karagay	Карагай	52.84550829	90.10717158	Khakas	57633	tsacorpus	
Spoken corpus of Khakas	Устный корпус диалектов хакасского языка	Khakas	Хакасский	https://lingconlab.ru/spoken_khakas/	corpus	корпус	minority	малых языков	Chylany	Чиланы	52.81394105	90.04211831	Khakas	57633	tsacorpus	
Spoken corpus of Maloye Karachkino Chuvash	Устный корпус малокарачкинского говора чувашского языка 	Maloye Karachkino Chuvash	Малокарачкинского говор чувашского	https://lingconlab.ru/chuvash/	corpus	корпус	minority	малых языков	Maloye Karachkino	Малое Карачкино	56.08806	46.45806	Chuvash	6405	tsacorpus	ignore
Spoken corpus of Meadow Mari	Устный корпус лугового марийского языка	Meadow Mari	Луговой марийский	https://lingconlab.ru/spoken_meadow_mari/	corpus	корпус	minority	малых языков	Staryj Torjal	Старый Торъял	56.95781881	48.78028179	Eastern Mari	11647	tsacorpus	
Spoken corpus of Tanti Dargwa	Устный корпус тантынского даргинского	Tanti Dargwa	Тантынский даргинский	https://lingconlab.ru/tanti_dargwa/search	corpus	корпус	minority	малых языков	Tanti	Танты	42.1655583	47.3106305	Nuclear North Dargwa	2683	tsacorpus	
Spoken corpus of the Besleney Dialect of Kabardian	Устный корпус бесленеевского диалекта кабардино-черкесского языка	Besleney Kabardian	Кабардино-черкесский	https://lingconlab.ru/spoken_besleney/	corpus	корпус	minority	малых языков	Ulyap	Уляп	45.05366652	39.94593254	Kabardian	7955	tsacorpus	
Spoken corpus of Tsnal Lezgi	Устный корпус цнальского говора лезгинского языка	Tsnal Lezgi	Цнальский диалект лезгинского	https://lingconlab.ru/tsnal_lezgi/	corpus	корпус	minority	малых языков	Cnal	Цнал	41.69631754	47.99850103	Lezgian	5113	tsacorpus	
Spoken corpus of West Circassian	Устный корпус адыгейского языка	West Circassian	Адыгейский	https://lingconlab.ru/spoken_adyghe/	corpus	корпус	minority	малых языков	Kabekhabl	Кабехабль	45.04732563	40.180409	Adyghe	9128	tsacorpus	
Spoken corpus of West Circassian	Устный корпус адыгейского языка	West Circassian	Адыгейский	https://lingconlab.ru/spoken_adyghe/	corpus	корпус	minority	малых языков	Pshicho	Пшичо	45.0640203	40.17600355	Adyghe	9128	tsacorpus	
Spoken corpus of West Circassian	Устный корпус адыгейского языка	West Circassian	Адыгейский	https://lingconlab.ru/spoken_adyghe/	corpus	корпус	minority	малых языков	Khatazhukay	Хатажукай	45.07688951	40.18626859	Adyghe	9128	tsacorpus	
Spoken сorpus of Itsari Dargwa	Устный корпус ицаринского даргинского	Itsari Dargwa	Ицаринский даргинский	https://lingconlab.ru/itsari_dargwa/	corpus	корпус	minority	малых языков	Itsari	Ицари	42.618485	47.288081	Southwestern Dargwa	2535	tsacorpus	
Spoken сorpus of Kadar Dargwa	Устный корпус кадарского даргинского	Kadar Dargwa	Кадарский даргинский	https://lingconlab.ru/kadar_dargwa/	corpus	корпус	minority	малых языков	Kadar	Кадар	42.618485	47.288081	Nuclear North Dargwa	6366	tsacorpus	
Spoken сorpus of Muira Dargwa	Устный корпус муиринского даргинского	Muira Dargwa	Муиринский даргинский	https://lingconlab.ru/muira_dargwa/	corpus	корпус	minority	малых языков	Kalkni	Калкни	42.16667	47.7	Nuclear North Dargwa	6935	tsacorpus	
Atlas of Multilingualism in Dagestan	Атлас многоязычия в Дагестане	Atlas of Multilingualism in Dagestan	Атлас многоязычия в Дагестане	https://multidagestan.com/	database	база данных									other	
Atlas of Rutul dialects	Атлас диалектов рутульского языка	Atlas of Rutul dialects	Атлас диалектов рутульского языка	https://lingconlab.github.io/rutul_dialectology/	database	база данных			Khnov	Хнов	41.378607	47.443605	Rutul		other	
Atlas of Rutul dialects	Атлас диалектов рутульского языка	Atlas of Rutul dialects	Атлас диалектов рутульского языка	https://lingconlab.github.io/rutul_dialectology/	database	база данных			Kiche	Киче	41.53146	47.48171	Rutul		other	
Atlas of Rutul dialects	Атлас диалектов рутульского языка	Atlas of Rutul dialects	Атлас диалектов рутульского языка	https://lingconlab.github.io/rutul_dialectology/	database	база данных			Rutul	Рутул	41.5342	47.4269	Rutul		other	
Atlas of Rutul dialects	Атлас диалектов рутульского языка	Atlas of Rutul dialects	Атлас диалектов рутульского языка	https://lingconlab.github.io/rutul_dialectology/	database	база данных			Kufa	Куфа	41.564115	47.376937	Rutul		other	
Atlas of Rutul dialects	Атлас диалектов рутульского языка	Atlas of Rutul dialects	Атлас диалектов рутульского языка	https://lingconlab.github.io/rutul_dialectology/	database	база данных			Khnyukh	Хнюх	41.58289	47.43299	Rutul		other	
Atlas of Rutul dialects	Атлас диалектов рутульского языка	Atlas of Rutul dialects	Атлас диалектов рутульского языка	https://lingconlab.github.io/rutul_dialectology/	database	база данных			Amsar	Амсар	41.60348	47.33116	Rutul		other	
Atlas of Rutul dialects	Атлас диалектов рутульского языка	Atlas of Rutul dialects	Атлас диалектов рутульского языка	https://lingconlab.github.io/rutul_dialectology/	database	база данных			Luchek	Лучек	41.60988	47.307307	Rutul		other	
Atlas of Rutul dialects	Атлас диалектов рутульского языка	Atlas of Rutul dialects	Атлас диалектов рутульского языка	https://lingconlab.github.io/rutul_dialectology/	database	база данных			Kina	Кина	41.6166	47.2647	Rutul		other	
Atlas of Rutul dialects	Атлас диалектов рутульского языка	Atlas of Rutul dialects	Атлас диалектов рутульского языка	https://lingconlab.github.io/rutul_dialectology/	database	база данных			Shinaz	Шиназ	41.618658	47.375666	Rutul		other	
Atlas of Rutul dialects	Атлас диалектов рутульского языка	Atlas of Rutul dialects	Атлас диалектов рутульского языка	https://lingconlab.github.io/rutul_dialectology/	database	база данных			Vrush	Вруш	41.646787	47.310094	Rutul		other	
Atlas of Rutul dialects	Атлас диалектов рутульского языка	Atlas of Rutul dialects	Атлас диалектов рутульского языка	https://lingconlab.github.io/rutul_dialectology/	database	база данных			Dzhilikhur	Джилихур	41.65545	47.26768	Rutul		other	
Atlas of Rutul dialects	Атлас диалектов рутульского языка	Atlas of Rutul dialects	Атлас диалектов рутульского языка	https://lingconlab.github.io/rutul_dialectology/	database	база данных			Tsudik	Цудик	41.66611	47.28056	Rutul		other	
Atlas of Rutul dialects	Атлас диалектов рутульского языка	Atlas of Rutul dialects	Атлас диалектов рутульского языка	https://lingconlab.github.io/rutul_dialectology/	database	база данных			Myukhrek	Мюхрек	41.68	47.29	Rutul		other	
Atlas of Rutul dialects	Атлас диалектов рутульского языка	Atlas of Rutul dialects	Атлас диалектов рутульского языка	https://lingconlab.github.io/rutul_dialectology/	database	база данных			Aran	Аран	41.67389	47.24639	Rutul		other	
Atlas of Rutul dialects	Атлас диалектов рутульского языка	Atlas of Rutul dialects	Атлас диалектов рутульского языка	https://lingconlab.github.io/rutul_dialectology/	database	база данных			Ikhrek	Ихрек	41.693931	47.210005	Rutul		other	
Atlas of Rutul dialects	Атлас диалектов рутульского языка	Atlas of Rutul dialects	Атлас диалектов рутульского языка	https://lingconlab.github.io/rutul_dialectology/	database	база данных			Novyy Borch	Новый Борч	43.48722	47.04556	Rutul		other	
Atlas of Rutul dialects	Атлас диалектов рутульского языка	Atlas of Rutul dialects	Атлас диалектов рутульского языка	https://lingconlab.github.io/rutul_dialectology/	database	база данных			Kazankulak	Казанкулак	43.52334	47.13435	Rutul		other	
Atlas of Rutul dialects	Атлас диалектов рутульского языка	Atlas of Rutul dialects	Атлас диалектов рутульского языка	https://lingconlab.github.io/rutul_dialectology/	database	база данных			Borch	Борч	41.4544	47.323	Rutul		other	
Atlas of Rutul dialects	Атлас диалектов рутульского языка	Atlas of Rutul dialects	Атлас диалектов рутульского языка	https://lingconlab.github.io/rutul_dialectology/	database	база данных			Kala	Кала	41.577819	47.3499843	Rutul		other	
DAG < APT	DAG < APT	DAG < APT	DAG < APT	https://lingconlab.github.io/DAG-APT/	database	база данных									other	
Daghestanian loans database	База данных заимствований в языках Дагестана	Daghestanian loans database	База данных заимствований в языках Дагестана	https://lingconlab.ru/dagloans/	database	база данных									other	
DagSwadesh	DagSwadesh	DagSwadesh	DagSwadesh	https://lingconlab.ru/dagswadesh/	database	база данных									other	
Parabible	Parabible	Parabible	Parabible	https://lingconlab.ru/parabible/	corpus	корпус									other	
Prosody of Russian Dialects	База данных просодии русских диалектов	Prosody of Russian Dialects	База данных просодии русских диалектов	https://lingconlab.github.io/PRuD/	database	база данных									other	
The Andic Dictionaries Examples Database	База данных примеров андийских словарей	The Andic Dictionaries Examples Database	База данных примеров андийских словарей	https://lingconlab.github.io/andic_dictionary_examples_database/	database	база данных					42.4003	46.3037	Northern Akhvakh	94302	other	
The Andic Dictionaries Examples Database	База данных примеров андийских словарей	The Andic Dictionaries Examples Database	База данных примеров андийских словарей	https://lingconlab.github.io/andic_dictionary_examples_database/	database	база данных					42.3966	46.1041	Bagvalal	94302	other	
The Andic Dictionaries Examples Database	База данных примеров андийских словарей	The Andic Dictionaries Examples Database	База данных примеров андийских словарей	https://lingconlab.github.io/andic_dictionary_examples_database/	database	база данных					42.665	46.22	Botlikh	94302	other	
The Andic Dictionaries Examples Database	База данных примеров андийских словарей	The Andic Dictionaries Examples Database	База данных примеров андийских словарей	https://lingconlab.github.io/andic_dictionary_examples_database/	database	база данных					42.5024	45.995	Chamalal	94302	other	
The Andic Dictionaries Examples Database	База данных примеров андийских словарей	The Andic Dictionaries Examples Database	База данных примеров андийских словарей	https://lingconlab.github.io/andic_dictionary_examples_database/	database	база данных					42.7428	46.2252	Godoberi	94302	other	
The Andic Dictionaries Examples Database	База данных примеров андийских словарей	The Andic Dictionaries Examples Database	База данных примеров андийских словарей	https://lingconlab.github.io/andic_dictionary_examples_database/	database	база данных					42.6501	46.3151	Karata-Tukita	94302	other	
The Andic Dictionaries Examples Database	База данных примеров андийских словарей	The Andic Dictionaries Examples Database	База данных примеров андийских словарей	https://lingconlab.github.io/andic_dictionary_examples_database/	database	база данных					42.3316	45.9227	Tindi	94302	other	
The Andic Dictionaries Examples Database	База данных примеров андийских словарей	The Andic Dictionaries Examples Database	База данных примеров андийских словарей	https://lingconlab.github.io/andic_dictionary_examples_database/	database	база данных					42.5727	46.3724	Tokita	94302	other	
Typological Atlas of the Languages of Daghestan 	Типологический атлас языков Дагестана	Typological Atlas of the Languages of Daghestan 	Типологический атлас языков Дагестана	https://lingconlab.ru/dagatlas/	database	база данных									other	
Corpus of the Russian dialect spoken in Ilmen Lake district	Корпус говоров Ильменского Поозерья	Ilmen Lake district dialects	Говоры Ильменского Поозерья	https://lingconlab.ru/novgorod/	corpus	корпус	dialectal	диалектный	Ilmen	Ильмень	58.39333	31.1975	Russian	134207	spoco	
Corpus of the Russian dialect spoken in Ilmen Lake district	Корпус говоров Ильменского Поозерья	Ilmen Lake district dialects	Говоры Ильменского Поозерья	https://lingconlab.ru/novgorod/	corpus	корпус	dialectal	диалектный	Neronov Bor	Неронов Бор	58.4053472	31.1762	Russian	134207	spoco	
Corpus of the Russian dialect spoken in Ilmen Lake district	Корпус говоров Ильменского Поозерья	Ilmen Lake district dialects	Говоры Ильменского Поозерья	https://lingconlab.ru/novgorod/	corpus	корпус	dialectal	диалектный	Kuritsko	Курицко	58.3447278	31.1523417	Russian	134207	spoco	
Corpus of the Russian dialect spoken in Ilmen Lake district	Корпус говоров Ильменского Поозерья	Ilmen Lake district dialects	Говоры Ильменского Поозерья	https://lingconlab.ru/novgorod/	corpus	корпус	dialectal	диалектный	Khotyazh	Хотяж	58.3767694	31.1377528	Russian	134207	spoco	
Corpus of the Russian dialect spoken in Ilmen Lake district	Корпус говоров Ильменского Поозерья	Ilmen Lake district dialects	Говоры Ильменского Поозерья	https://lingconlab.ru/novgorod/	corpus	корпус	dialectal	диалектный	Kozynevo	Козынево	58.4067972	31.2071639	Russian	134207	spoco	
Corpus of the Russian dialect spoken in Ilmen Lake district	Корпус говоров Ильменского Поозерья	Ilmen Lake district dialects	Говоры Ильменского Поозерья	https://lingconlab.ru/novgorod/	corpus	корпус	dialectal	диалектный	Finyov Lug	Финёв Луг	58.95417	31.07944	Russian	134207	spoco	
Corpus of the Russian dialect spoken in Popovka	Корпус говора села Поповка	Popovka dialect	Говор с. Поповка	https://lingconlab.ru/popovka/	corpus	корпус	dialectal	диалектный	Popovka	Поповка	53.324589	40.862943	Russian	36617	spoco	
Dictionary of Kina Rutul	Словарь кининского диалекта рутульского языка	Kina Rutul	Кининский диалект рутульского языка	https://lingconlab.github.io/kina-rutul-dict/	dictionary	словарь	dictionary	словарь	Kina	Кина	41.6186	47.2667	Rutul	1253	other	
Khanty Russian Corpus	Корпус хантыйского русского 	Khanty Russian	Хантыйский русский	https://lingconlab.ru/khantyrus/	corpus	корпус	bilingual	билингвальный	Khanty-Mansiysk	Ханты-Мансийск	61.0301026	69.1560801	Russian	40225	spoco	
Dictionary of Zilo Andi	Словарь зиловского диалекта андийского языка	Zilo Andi	Зиловский диалект андийского языка	https://lingconlab.github.io/zilo_dictionary/	dictionary	словарь	dictionary	словарь	Zilo	Зило	42.73167	46.31861	Andi	1501	other	
Corpus of the dialect spoken in Kolodezhnoe	Корпус говора села Колодежное	Kolodezhnoe dialect	Говор с. Колодежное	https://lingconlab.ru/kolodezhnoe/	corpus	корпус	dialectal	диалектный	Kolodezhnoe	Колодежное	50.634421	39.844661	Ukrainian	57959	spoco	
Kabardian corpus	Кабардинский корпус	Kabardian corpus	Кабардинский корпус	https://lingconlab.ru/kabardian/search	corpus	корпус	minority	малых языков			43.5082	43.3918	Kabardian	4950652	tsacorpus	ignore
Abkhaz coprus	Абхазский корпус	Abkhaz coprus	Абхазский корпус	https://lingconlab.ru/abkhaz/search	corpus	корпус	minority	малых языков			43.05622	41.15911	Abkhaz	917493	tsacorpus	ignore
Corpus of the Russian dialect spoken in Pyatiusovo	Корпус говора деревни Пятиусово	Pyatiusovo Corpus	Говор д. Пятиусово	https://lingconlab.ru/pyatiusovo/	corpus	корпус	dialectal	диалектный	Pyatiusovo	Пятиусово	56.24361	31.76722	Russian	96537	spoco	
Corpus of Mansi Russian	Корпус мансийского русского	Mansi Russian	Мансийский русский	https://lingconlab.ru/MansiRus/	corpus	корпус	bilingual	билингвальный	Khanty-Mansiysk	Ханты-Мансийск	61.0018275	68.9015841	Russian	46979	spoco	
Corpus of Nanai language	Корпус нанайского языка	Nanai	Нанайский	https://lingconlab.ru/nanai/	corpus	корпус	minority	малых языков	Dzhuen	Джуен	49.84972	136.25639	Nanai	4128	tsacorpus	
Spoken сorpus of Chirag Dargwa	Устный корпус чирагского даргинского	Chirag Dargwa	Чирагский даргинский	https://lingconlab.ru/chirag/search	corpus	корпус	minority	малых языков	Chirag	Чираг	41.83694	47.43056	Chirag	49104	tsacorpus	ignore
The Corpus of Russian spoken by Assyrians	Устный корпус ассирийского руского	Assyrian Russian	Ассирийский русский	https://lingconlab.ru/AssyrRus/#!/	corpus	корпус	bilingual	билингвальный	Urmia	Урмия	44.85444	40.85861	Russian	55599	spoco	
